start=new Date('2022-05-14T00:00:00.000Z').valueOf();
sats=[{"SEMIMAJOR_AXIS":"6769.036","INCLINATION":"53.2174","EPOCH":"2022-05-13T22:00:00.999936","MEAN_ANOMALY":"301.9860","RCS_SIZE":"LARGE","ELEMENT_SET_NO":"999","OBJECT_TYPE":"PAYLOAD","REV_AT_EPOCH":"1243","CLASSIFICATION_TYPE":"U","DECAY_DATE":null,"SITE":"AFETR","GP_ID":"203452504","PERIOD":"92.374","MEAN_MOTION_DDOT":"0.0000000000000","COUNTRY_CODE":"US","OBJECT_ID":"2022-022AM","OBJECT_NAME":"STARLINK-3551","MEAN_MOTION":"15.58879284","PERIAPSIS":"390.168","NORAD_CAT_ID":"51887","ECCENTRICITY":"0.00010840","BSTAR":"-0.00985270000000","APOAPSIS":"391.635","FILE":"3444216","EPHEMERIS_TYPE":"0","TLE_LINE1":"1 51887U 22022AM  22133.91667824 -.00712114  00000-0 -98527-2 0  9992","ARG_OF_PERICENTER":"63.9175","REF_FRAME":"TEME","TIME_SYSTEM":"UTC","LAUNCH_DATE":"2022-03-03","RA_OF_ASC_NODE":"151.6982","MEAN_ELEMENT_THEORY":"SGP4","TLE_LINE2":"2 51887  53.2174 151.6982 0001084  63.9175 301.9860 15.58879284 12433","CENTER_NAME":"EARTH","MEAN_MOTION_DOT":"-0.00712114"},{"NORAD_CAT_ID":"51888","ECCENTRICITY":"0.00010570","BSTAR":"-0.00985490000000","MEAN_MOTION":"15.58870517","OBJECT_NAME":"STARLINK-3536","OBJECT_ID":"2022-022AN","PERIAPSIS":"390.211","DECAY_DATE":null,"CLASSIFICATION_TYPE":"U","OBJECT_TYPE":"PAYLOAD","REV_AT_EPOCH":"1243","ELEMENT_SET_NO":"999","MEAN_MOTION_DDOT":"0.0000000000000","COUNTRY_CODE":"US","GP_ID":"203452498","PERIOD":"92.375","SITE":"AFETR","MEAN_ANOMALY":"296.1909","EPOCH":"2022-05-13T22:00:00.999936","INCLINATION":"53.2174","SEMIMAJOR_AXIS":"6769.062","RCS_SIZE":"LARGE","TLE_LINE2":"2 51888  53.2174 151.6829 0001057  68.1513 296.1909 15.58870517 12436","MEAN_MOTION_DOT":"-0.00712037","CENTER_NAME":"EARTH","MEAN_ELEMENT_THEORY":"SGP4","LAUNCH_DATE":"2022-03-03","TIME_SYSTEM":"UTC","REF_FRAME":"TEME","RA_OF_ASC_NODE":"151.6829","APOAPSIS":"391.642","ARG_OF_PERICENTER":"68.1513","TLE_LINE1":"1 51888U 22022AN  22133.91667824 -.00712037  00000-0 -98549-2 0  9991","EPHEMERIS_TYPE":"0","FILE":"3444216"},{"APOAPSIS":"391.598","TLE_LINE1":"1 51889U 22022AP  22133.91667824 -.00712176  00000-0 -98487-2 0  9997","ARG_OF_PERICENTER":"64.8191","EPHEMERIS_TYPE":"0","FILE":"3444217","REF_FRAME":"TEME","TIME_SYSTEM":"UTC","LAUNCH_DATE":"2022-03-03","RA_OF_ASC_NODE":"151.7207","MEAN_ELEMENT_THEORY":"SGP4","TLE_LINE2":"2 51889  53.2174 151.7207 0001085  64.8191 303.4260 15.58892384 12432","CENTER_NAME":"EARTH","MEAN_MOTION_DOT":"-0.00712176","EPOCH":"2022-05-13T22:00:00.999936","MEAN_ANOMALY":"303.4260","SEMIMAJOR_AXIS":"6768.998","INCLINATION":"53.2174","RCS_SIZE":"LARGE","CLASSIFICATION_TYPE":"U","DECAY_DATE":null,"OBJECT_TYPE":"PAYLOAD","ELEMENT_SET_NO":"999","REV_AT_EPOCH":"1243","COUNTRY_CODE":"US","MEAN_MOTION_DDOT":"0.0000000000000","SITE":"AFETR","PERIOD":"92.373","GP_ID":"203452511","MEAN_MOTION":"15.58892384","OBJECT_NAME":"STARLINK-3547","OBJECT_ID":"2022-022AP","PERIAPSIS":"390.129","NORAD_CAT_ID":"51889","ECCENTRICITY":"0.00010850","BSTAR":"-0.00984870000000"},{"APOAPSIS":"391.629","FILE":"3444217","TLE_LINE1":"1 51890U 22022AQ  22133.91667824 -.00712212  00000-0 -98525-2 0  9993","ARG_OF_PERICENTER":"64.7404","EPHEMERIS_TYPE":"0","LAUNCH_DATE":"2022-03-03","TIME_SYSTEM":"UTC","REF_FRAME":"TEME","RA_OF_ASC_NODE":"151.7055","MEAN_ELEMENT_THEORY":"SGP4","TLE_LINE2":"2 51890  53.2174 151.7055 0001093  64.7404 301.9436 15.58883681 12438","CENTER_NAME":"EARTH","MEAN_MOTION_DOT":"-0.00712212","INCLINATION":"53.2174","SEMIMAJOR_AXIS":"6769.024","MEAN_ANOMALY":"301.9436","EPOCH":"2022-05-13T22:00:00.999936","RCS_SIZE":"LARGE","OBJECT_TYPE":"PAYLOAD","REV_AT_EPOCH":"1243","ELEMENT_SET_NO":"999","DECAY_DATE":null,"CLASSIFICATION_TYPE":"U","PERIOD":"92.374","GP_ID":"203452518","SITE":"AFETR","MEAN_MOTION_DDOT":"0.0000000000000","COUNTRY_CODE":"US","OBJECT_ID":"2022-022AQ","OBJECT_NAME":"STARLINK-3519","MEAN_MOTION":"15.58883681","PERIAPSIS":"390.149","NORAD_CAT_ID":"51890","ECCENTRICITY":"0.00010930","BSTAR":"-0.00985250000000"},{"SITE":"AFETR","PERIOD":"92.373","GP_ID":"203452513","MEAN_MOTION_DDOT":"0.0000000000000","COUNTRY_CODE":"US","REV_AT_EPOCH":"1248","OBJECT_TYPE":"PAYLOAD","ELEMENT_SET_NO":"999","CLASSIFICATION_TYPE":"U","DECAY_DATE":null,"RCS_SIZE":"LARGE","SEMIMAJOR_AXIS":"6768.986","INCLINATION":"53.2174","EPOCH":"2022-05-13T22:00:00.999936","MEAN_ANOMALY":"305.3460","BSTAR":"-0.00984780000000","ECCENTRICITY":"0.00010820","NORAD_CAT_ID":"51891","PERIAPSIS":"390.118","OBJECT_NAME":"STARLINK-3549","OBJECT_ID":"2022-022AR","MEAN_MOTION":"15.58896803","RA_OF_ASC_NODE":"151.7282","REF_FRAME":"TEME","LAUNCH_DATE":"2022-03-03","TIME_SYSTEM":"UTC","FILE":"3444217","TLE_LINE1":"1 51891U 22022AR  22133.91667824 -.00712225  00000-0 -98478-2 0  9995","ARG_OF_PERICENTER":"63.6795","EPHEMERIS_TYPE":"0","APOAPSIS":"391.583","CENTER_NAME":"EARTH","MEAN_MOTION_DOT":"-0.00712225","TLE_LINE2":"2 51891  53.2174 151.7282 0001082  63.6795 305.3460 15.58896803 12480","MEAN_ELEMENT_THEORY":"SGP4"},{"APOAPSIS":"391.576","FILE":"3444217","EPHEMERIS_TYPE":"0","TLE_LINE1":"1 51892U 22022AS  22133.91667824 -.00711996  00000-0 -98478-2 0  9990","ARG_OF_PERICENTER":"70.1550","TIME_SYSTEM":"UTC","LAUNCH_DATE":"2022-03-03","REF_FRAME":"TEME","RA_OF_ASC_NODE":"151.7130","MEAN_ELEMENT_THEORY":"SGP4","TLE_LINE2":"2 51892  53.2174 151.7130 0001033  70.1550 297.3096 15.58887944 12437","MEAN_MOTION_DOT":"-0.00711996","CENTER_NAME":"EARTH","INCLINATION":"53.2174","SEMIMAJOR_AXIS":"6769.011","MEAN_ANOMALY":"297.3096","EPOCH":"2022-05-13T22:00:00.999936","RCS_SIZE":"LARGE","ELEMENT_SET_NO":"999","OBJECT_TYPE":"PAYLOAD","REV_AT_EPOCH":"1243","DECAY_DATE":null,"CLASSIFICATION_TYPE":"U","GP_ID":"203452516","PERIOD":"92.374","SITE":"AFETR","COUNTRY_CODE":"US","MEAN_MOTION_DDOT":"0.0000000000000","OBJECT_NAME":"STARLINK-3587","OBJECT_ID":"2022-022AS","MEAN_MOTION":"15.58887944","PERIAPSIS":"390.177","NORAD_CAT_ID":"51892","ECCENTRICITY":"0.00010330","BSTAR":"-0.00984780000000"},{"MEAN_ELEMENT_THEORY":"SGP4","TLE_LINE2":"2 51893  53.2174 151.7432 0001017  74.5520 296.0343 15.58905440 12499","MEAN_MOTION_DOT":"-0.00712058","CENTER_NAME":"EARTH","APOAPSIS":"391.514","FILE":"3444217","TLE_LINE1":"1 51893U 22022AT  22133.91667824 -.00712058  00000-0 -98422-2 0  9990","EPHEMERIS_TYPE":"0","ARG_OF_PERICENTER":"74.5520","REF_FRAME":"TEME","LAUNCH_DATE":"2022-03-03","TIME_SYSTEM":"UTC","RA_OF_ASC_NODE":"151.7432","OBJECT_NAME":"STARLINK-3579","OBJECT_ID":"2022-022AT","MEAN_MOTION":"15.58905440","PERIAPSIS":"390.137","NORAD_CAT_ID":"51893","ECCENTRICITY":"0.00010170","BSTAR":"-0.00984220000000","SEMIMAJOR_AXIS":"6768.961","INCLINATION":"53.2174","EPOCH":"2022-05-13T22:00:00.999936","MEAN_ANOMALY":"296.0343","RCS_SIZE":"LARGE","ELEMENT_SET_NO":"999","OBJECT_TYPE":"PAYLOAD","REV_AT_EPOCH":"1249","CLASSIFICATION_TYPE":"U","DECAY_DATE":null,"SITE":"AFETR","PERIOD":"92.373","GP_ID":"203453012","MEAN_MOTION_DDOT":"0.0000000000000","COUNTRY_CODE":"US"},{"RA_OF_ASC_NODE":"151.7355","LAUNCH_DATE":"2022-03-03","TIME_SYSTEM":"UTC","REF_FRAME":"TEME","FILE":"3444220","TLE_LINE1":"1 51894U 22022AU  22133.91667824 -.00712198  00000-0 -98458-2 0  9995","ARG_OF_PERICENTER":"67.2854","EPHEMERIS_TYPE":"0","APOAPSIS":"391.557","MEAN_MOTION_DOT":"-0.00712198","CENTER_NAME":"EARTH","TLE_LINE2":"2 51894  53.2174 151.7355 0001062  67.2854 302.5205 15.58901148 12494","MEAN_ELEMENT_THEORY":"SGP4","PERIOD":"92.373","GP_ID":"203452568","SITE":"AFETR","COUNTRY_CODE":"US","MEAN_MOTION_DDOT":"0.0000000000000","REV_AT_EPOCH":"1249","OBJECT_TYPE":"PAYLOAD","ELEMENT_SET_NO":"999","DECAY_DATE":null,"CLASSIFICATION_TYPE":"U","RCS_SIZE":"LARGE","INCLINATION":"53.2174","SEMIMAJOR_AXIS":"6768.973","MEAN_ANOMALY":"302.5205","EPOCH":"2022-05-13T22:00:00.999936","BSTAR":"-0.00984580000000","NORAD_CAT_ID":"51894","ECCENTRICITY":"0.00010620","PERIAPSIS":"390.119","OBJECT_ID":"2022-022AU","OBJECT_NAME":"STARLINK-3595","MEAN_MOTION":"15.58901148"},{"BSTAR":"-0.00984330000000","ECCENTRICITY":"0.00011210","NORAD_CAT_ID":"51895","PERIAPSIS":"390.042","MEAN_MOTION":"15.58914155","OBJECT_NAME":"STARLINK-3594","OBJECT_ID":"2022-022AV","MEAN_MOTION_DDOT":"0.0000000000000","COUNTRY_CODE":"US","SITE":"AFETR","GP_ID":"203452538","PERIOD":"92.372","CLASSIFICATION_TYPE":"U","DECAY_DATE":null,"OBJECT_TYPE":"PAYLOAD","ELEMENT_SET_NO":"999","REV_AT_EPOCH":"1243","RCS_SIZE":"LARGE","EPOCH":"2022-05-13T22:00:00.999936","MEAN_ANOMALY":"312.4700","SEMIMAJOR_AXIS":"6768.935","INCLINATION":"53.2175","MEAN_MOTION_DOT":"-0.00712366","CENTER_NAME":"EARTH","TLE_LINE2":"2 51895  53.2175 151.7491 0001121  59.6771 312.4700 15.58914155 12432","MEAN_ELEMENT_THEORY":"SGP4","RA_OF_ASC_NODE":"151.7491","REF_FRAME":"TEME","TIME_SYSTEM":"UTC","LAUNCH_DATE":"2022-03-03","TLE_LINE1":"1 51895U 22022AV  22133.91667824 -.00712366  00000-0 -98433-2 0  9996","EPHEMERIS_TYPE":"0","ARG_OF_PERICENTER":"59.6771","FILE":"3444219","APOAPSIS":"391.559"},{"SITE":"AFETR","GP_ID":"203452571","PERIOD":"92.372","MEAN_MOTION_DDOT":"0.0000000000000","COUNTRY_CODE":"US","ELEMENT_SET_NO":"999","OBJECT_TYPE":"PAYLOAD","REV_AT_EPOCH":"1248","CLASSIFICATION_TYPE":"U","DECAY_DATE":null,"RCS_SIZE":"LARGE","SEMIMAJOR_AXIS":"6768.948","INCLINATION":"53.2174","EPOCH":"2022-05-13T22:00:00.999936","MEAN_ANOMALY":"307.8122","BSTAR":"-0.00984350000000","NORAD_CAT_ID":"51896","ECCENTRICITY":"0.00010850","PERIAPSIS":"390.078","OBJECT_ID":"2022-022AW","OBJECT_NAME":"STARLINK-3593","MEAN_MOTION":"15.58909870","RA_OF_ASC_NODE":"151.7481","REF_FRAME":"TEME","TIME_SYSTEM":"UTC","LAUNCH_DATE":"2022-03-03","FILE":"3444220","TLE_LINE1":"1 51896U 22022AW  22133.91667824 -.00712266  00000-0 -98435-2 0  9998","EPHEMERIS_TYPE":"0","ARG_OF_PERICENTER":"63.5543","APOAPSIS":"391.547","CENTER_NAME":"EARTH","MEAN_MOTION_DOT":"-0.00712266","TLE_LINE2":"2 51896  53.2174 151.7481 0001085  63.5543 307.8122 15.58909870 12480","MEAN_ELEMENT_THEORY":"SGP4"}];
